[{"OBJECT_NAME":"STARLINK-31671","OBJECT_ID":"2024-073F","EPOCH":"2026-03-09T02:32:27.923136","MEAN_MOTION":15.27573781,"ECCENTRICITY":0.00030145,"INCLINATION":42.9998,"RA_OF_ASC_NODE":321.5442,"ARG_OF_PERICENTER":242.6241,"MEAN_ANOMALY":117.4304,"EPHEMERIS_TYPE":0,"CLASSIFICATION_TYPE":"U","NORAD_CAT_ID":59516,"ELEMENT_SET_NO":999,"REV_AT_EPOCH":10608,"BSTAR":-9.889024e-6,"MEAN_MOTION_DOT":-5.35e-6,"MEAN_MOTION_DDOT":0},{"OBJECT_NAME":"LIME","OBJECT_ID":"2025-009AR","EPOCH":"2026-03-09T17:44:15.459648","MEAN_MOTION":15.28703313,"ECCENTRICITY":0.00016347,"INCLINATION":97.3985,"RA_OF_ASC_NODE":151.4831,"ARG_OF_PERICENTER":35.9029,"MEAN_ANOMALY":324.232,"EPHEMERIS_TYPE":0,"CLASSIFICATION_TYPE":"U","NORAD_CAT_ID":62648,"ELEMENT_SET_NO":999,"REV_AT_EPOCH":6376,"BSTAR":0.00047722827,"MEAN_MOTION_DOT":0.00013254,"MEAN_MOTION_DDOT":0}]
